STARLINK-35388          
1 66466U 25262L   25345.58335648  .00077610  00000+0  18511-2 0  9994
2 66466  43.0007  77.9404 0001085 269.3146  77.1795 15.40622159  5455
STARLINK-35682          
1 66467U 25262M   25345.58335648 -.00307588  00000+0 -76288-2 0  9992
2 66467  43.0011  78.0029 0001074 254.7968  66.8895 15.40810571  5457
STARLINK-35331          
1 66468U 25262N   25345.58335648 -.01181676  00000+0 -30243-1 0  9992
2 66468  43.0008  77.9118 0001532 278.1003  80.3864 15.41510535  5455
STARLINK-35451          
1 66469U 25262P   25344.67537683 -.00165698  00000+0 -29161-2 0  9998
2 66469  43.0005  83.1302 0000492 334.6757  25.4079 15.50219904  5246
STARLINK-35655          
1 66470U 25262Q   25345.58335648 -.02371613  00000+0 -58272-1 0  9990
2 66470  43.0001  77.8880 0001627 285.1117  83.7914 15.43384617  5450
STARLINK-35569          
1 66471U 25262R   25345.58335648 -.02034886  00000+0 -48240-1 0  9993
2 66471  43.0001  77.8645 0001533 281.4131  96.6818 15.44464067  5456
STARLINK-35567          
1 66472U 25262S   25345.58335648 -.01997329  00000+0 -43091-1 0  9992
2 66472  43.0002  77.8310 0001376 267.8839 124.1968 15.47114268  5456
STARLINK-35568          
1 66473U 25262T   25345.31884340  .00230458  00000+0  38259-2 0  9993
2 66473  42.9998  79.3576 0004759 252.6139 107.4201 15.50526439  5346
STARLINK-35620          
1 66474U 25262U   25345.31845303  .00219297  00000+0  36220-2 0  9994
2 66474  43.0007  79.3535 0001937 275.2448  84.8191 15.50718811  5347
STARLINK-35538          
1 66475U 25262V   25345.64016766  .00103764  00000+0  17483-2 0  9995
2 66475  43.0001  77.4689 0001914 271.4275  88.6366 15.50624349  5395
STARLINK-35372          
1 66476U 25262W   25345.63982812  .00170386  00000+0  28408-2 0  9992
2 66476  43.0002  77.4654 0001386 284.0040  76.0666 15.50643698  5282
STARLINK-35354          
1 66477U 25262X   25345.31706821  .00161640  00000+0  26960-2 0  9996
2 66477  43.0001  79.3431 0001609 267.1783  92.8893 15.50668561  5341
