CCSDS_OMM_VERS = 2.0
CREATION_DATE  = 
ORIGINATOR     = 

OBJECT_NAME    = STARLINK-35388
OBJECT_ID      = 2025-262L
CENTER_NAME    = EARTH
REF_FRAME      = TEME
TIME_SYSTEM    = UTC
MEAN_ELEMENT_THEORY = SGP/SGP4

EPOCH          = 2025-12-11T14:00:01.999872
MEAN_MOTION    = 15.40622159
ECCENTRICITY   = .00010856
INCLINATION    = 43.0007
RA_OF_ASC_NODE = 77.9404
ARG_OF_PERICENTER = 269.3146
MEAN_ANOMALY   = 77.1795

EPHEMERIS_TYPE = 0
CLASSIFICATION_TYPE = U
NORAD_CAT_ID   = 66466
ELEMENT_SET_NO = 999
REV_AT_EPOCH   = 545
BSTAR          = .18511039E-2
MEAN_MOTION_DOT = .7761E-3
MEAN_MOTION_DDOT = 0

CCSDS_OMM_VERS = 2.0
CREATION_DATE  = 
ORIGINATOR     = 

OBJECT_NAME    = STARLINK-35682
OBJECT_ID      = 2025-262M
CENTER_NAME    = EARTH
REF_FRAME      = TEME
TIME_SYSTEM    = UTC
MEAN_ELEMENT_THEORY = SGP/SGP4

EPOCH          = 2025-12-11T14:00:01.999872
MEAN_MOTION    = 15.40810571
ECCENTRICITY   = .00010749
INCLINATION    = 43.0011
RA_OF_ASC_NODE = 78.0029
ARG_OF_PERICENTER = 254.7968
MEAN_ANOMALY   = 66.8895

EPHEMERIS_TYPE = 0
CLASSIFICATION_TYPE = U
NORAD_CAT_ID   = 66467
ELEMENT_SET_NO = 999
REV_AT_EPOCH   = 545
BSTAR          = -.76287501E-2
MEAN_MOTION_DOT = -.307588E-2
MEAN_MOTION_DDOT = 0

CCSDS_OMM_VERS = 2.0
CREATION_DATE  = 
ORIGINATOR     = 

OBJECT_NAME    = STARLINK-35331
OBJECT_ID      = 2025-262N
CENTER_NAME    = EARTH
REF_FRAME      = TEME
TIME_SYSTEM    = UTC
MEAN_ELEMENT_THEORY = SGP/SGP4

EPOCH          = 2025-12-11T14:00:01.999872
MEAN_MOTION    = 15.41510535
ECCENTRICITY   = .00015325
INCLINATION    = 43.0008
RA_OF_ASC_NODE = 77.9118
ARG_OF_PERICENTER = 278.1003
MEAN_ANOMALY   = 80.3864

EPHEMERIS_TYPE = 0
CLASSIFICATION_TYPE = U
NORAD_CAT_ID   = 66468
ELEMENT_SET_NO = 999
REV_AT_EPOCH   = 545
BSTAR          = -.30243294E-1
MEAN_MOTION_DOT = -.1181676E-1
MEAN_MOTION_DDOT = 0

CCSDS_OMM_VERS = 2.0
CREATION_DATE  = 
ORIGINATOR     = 

OBJECT_NAME    = STARLINK-35451
OBJECT_ID      = 2025-262P
CENTER_NAME    = EARTH
REF_FRAME      = TEME
TIME_SYSTEM    = UTC
MEAN_ELEMENT_THEORY = SGP/SGP4

EPOCH          = 2025-12-10T16:12:32.558112
MEAN_MOTION    = 15.50219904
ECCENTRICITY   = .00004921
INCLINATION    = 43.0005
RA_OF_ASC_NODE = 83.1302
ARG_OF_PERICENTER = 334.6757
MEAN_ANOMALY   = 25.4079

EPHEMERIS_TYPE = 0
CLASSIFICATION_TYPE = U
NORAD_CAT_ID   = 66469
ELEMENT_SET_NO = 999
REV_AT_EPOCH   = 524
BSTAR          = -.29160526E-2
MEAN_MOTION_DOT = -.165698E-2
MEAN_MOTION_DDOT = 0

CCSDS_OMM_VERS = 2.0
CREATION_DATE  = 
ORIGINATOR     = 

OBJECT_NAME    = STARLINK-35655
OBJECT_ID      = 2025-262Q
CENTER_NAME    = EARTH
REF_FRAME      = TEME
TIME_SYSTEM    = UTC
MEAN_ELEMENT_THEORY = SGP/SGP4

EPOCH          = 2025-12-11T14:00:01.999872
MEAN_MOTION    = 15.43384617
ECCENTRICITY   = .00016277
INCLINATION    = 43.0001
RA_OF_ASC_NODE = 77.8880
ARG_OF_PERICENTER = 285.1117
MEAN_ANOMALY   = 83.7914

EPHEMERIS_TYPE = 0
CLASSIFICATION_TYPE = U
NORAD_CAT_ID   = 66470
ELEMENT_SET_NO = 999
REV_AT_EPOCH   = 545
BSTAR          = -.58271711E-1
MEAN_MOTION_DOT = -.2371613E-1
MEAN_MOTION_DDOT = 0

CCSDS_OMM_VERS = 2.0
CREATION_DATE  = 
ORIGINATOR     = 

OBJECT_NAME    = STARLINK-35569
OBJECT_ID      = 2025-262R
CENTER_NAME    = EARTH
REF_FRAME      = TEME
TIME_SYSTEM    = UTC
MEAN_ELEMENT_THEORY = SGP/SGP4

EPOCH          = 2025-12-11T14:00:01.999872
MEAN_MOTION    = 15.44464067
ECCENTRICITY   = .00015331
INCLINATION    = 43.0001
RA_OF_ASC_NODE = 77.8645
ARG_OF_PERICENTER = 281.4131
MEAN_ANOMALY   = 96.6818

EPHEMERIS_TYPE = 0
CLASSIFICATION_TYPE = U
NORAD_CAT_ID   = 66471
ELEMENT_SET_NO = 999
REV_AT_EPOCH   = 545
BSTAR          = -.48239713E-1
MEAN_MOTION_DOT = -.2034886E-1
MEAN_MOTION_DDOT = 0

CCSDS_OMM_VERS = 2.0
CREATION_DATE  = 
ORIGINATOR     = 

OBJECT_NAME    = STARLINK-35567
OBJECT_ID      = 2025-262S
CENTER_NAME    = EARTH
REF_FRAME      = TEME
TIME_SYSTEM    = UTC
MEAN_ELEMENT_THEORY = SGP/SGP4

EPOCH          = 2025-12-11T14:00:01.999872
MEAN_MOTION    = 15.47114268
ECCENTRICITY   = .00013768
INCLINATION    = 43.0002
RA_OF_ASC_NODE = 77.8310
ARG_OF_PERICENTER = 267.8839
MEAN_ANOMALY   = 124.1968

EPHEMERIS_TYPE = 0
CLASSIFICATION_TYPE = U
NORAD_CAT_ID   = 66472
ELEMENT_SET_NO = 999
REV_AT_EPOCH   = 545
BSTAR          = -.43091419E-1
MEAN_MOTION_DOT = -.1997329E-1
MEAN_MOTION_DDOT = 0

CCSDS_OMM_VERS = 2.0
CREATION_DATE  = 
ORIGINATOR     = 

OBJECT_NAME    = STARLINK-35568
OBJECT_ID      = 2025-262T
CENTER_NAME    = EARTH
REF_FRAME      = TEME
TIME_SYSTEM    = UTC
MEAN_ELEMENT_THEORY = SGP/SGP4

EPOCH          = 2025-12-11T07:39:08.069760
MEAN_MOTION    = 15.50526439
ECCENTRICITY   = .00047596
INCLINATION    = 42.9998
RA_OF_ASC_NODE = 79.3576
ARG_OF_PERICENTER = 252.6139
MEAN_ANOMALY   = 107.4201

EPHEMERIS_TYPE = 0
CLASSIFICATION_TYPE = U
NORAD_CAT_ID   = 66473
ELEMENT_SET_NO = 999
REV_AT_EPOCH   = 534
BSTAR          = .38259112E-2
MEAN_MOTION_DOT = .230458E-2
MEAN_MOTION_DDOT = 0

CCSDS_OMM_VERS = 2.0
CREATION_DATE  = 
ORIGINATOR     = 

OBJECT_NAME    = STARLINK-35620
OBJECT_ID      = 2025-262U
CENTER_NAME    = EARTH
REF_FRAME      = TEME
TIME_SYSTEM    = UTC
MEAN_ELEMENT_THEORY = SGP/SGP4

EPOCH          = 2025-12-11T07:38:34.341792
MEAN_MOTION    = 15.50718811
ECCENTRICITY   = .00019374
INCLINATION    = 43.0007
RA_OF_ASC_NODE = 79.3535
ARG_OF_PERICENTER = 275.2448
MEAN_ANOMALY   = 84.8191

EPHEMERIS_TYPE = 0
CLASSIFICATION_TYPE = U
NORAD_CAT_ID   = 66474
ELEMENT_SET_NO = 999
REV_AT_EPOCH   = 534
BSTAR          = .36220445E-2
MEAN_MOTION_DOT = .219297E-2
MEAN_MOTION_DDOT = 0

CCSDS_OMM_VERS = 2.0
CREATION_DATE  = 
ORIGINATOR     = 

OBJECT_NAME    = STARLINK-35538
OBJECT_ID      = 2025-262V
CENTER_NAME    = EARTH
REF_FRAME      = TEME
TIME_SYSTEM    = UTC
MEAN_ELEMENT_THEORY = SGP/SGP4

EPOCH          = 2025-12-11T15:21:50.485824
MEAN_MOTION    = 15.50624349
ECCENTRICITY   = .00019147
INCLINATION    = 43.0001
RA_OF_ASC_NODE = 77.4689
ARG_OF_PERICENTER = 271.4275
MEAN_ANOMALY   = 88.6366

EPHEMERIS_TYPE = 0
CLASSIFICATION_TYPE = U
NORAD_CAT_ID   = 66475
ELEMENT_SET_NO = 999
REV_AT_EPOCH   = 539
BSTAR          = .17483441E-2
MEAN_MOTION_DOT = .103764E-2
MEAN_MOTION_DDOT = 0

CCSDS_OMM_VERS = 2.0
CREATION_DATE  = 
ORIGINATOR     = 

OBJECT_NAME    = STARLINK-35372
OBJECT_ID      = 2025-262W
CENTER_NAME    = EARTH
REF_FRAME      = TEME
TIME_SYSTEM    = UTC
MEAN_ELEMENT_THEORY = SGP/SGP4

EPOCH          = 2025-12-11T15:21:21.149568
MEAN_MOTION    = 15.50643698
ECCENTRICITY   = .00013866
INCLINATION    = 43.0002
RA_OF_ASC_NODE = 77.4654
ARG_OF_PERICENTER = 284.0040
MEAN_ANOMALY   = 76.0666

EPHEMERIS_TYPE = 0
CLASSIFICATION_TYPE = U
NORAD_CAT_ID   = 66476
ELEMENT_SET_NO = 999
REV_AT_EPOCH   = 528
BSTAR          = .28408412E-2
MEAN_MOTION_DOT = .170386E-2
MEAN_MOTION_DDOT = 0

CCSDS_OMM_VERS = 2.0
CREATION_DATE  = 
ORIGINATOR     = 

OBJECT_NAME    = STARLINK-35354
OBJECT_ID      = 2025-262X
CENTER_NAME    = EARTH
REF_FRAME      = TEME
TIME_SYSTEM    = UTC
MEAN_ELEMENT_THEORY = SGP/SGP4

EPOCH          = 2025-12-11T07:36:34.693344
MEAN_MOTION    = 15.50668561
ECCENTRICITY   = .00016097
INCLINATION    = 43.0001
RA_OF_ASC_NODE = 79.3431
ARG_OF_PERICENTER = 267.1783
MEAN_ANOMALY   = 92.8893

EPHEMERIS_TYPE = 0
CLASSIFICATION_TYPE = U
NORAD_CAT_ID   = 66477
ELEMENT_SET_NO = 999
REV_AT_EPOCH   = 534
BSTAR          = .26959533E-2
MEAN_MOTION_DOT = .16164E-2
MEAN_MOTION_DDOT = 0

